COSMOS 2419 (714)       
1 28915U 05050A   17270.90559919  .00000010  00000-0  00000-0 0  9990
2 28915  65.5470  62.3936 0015846 358.3769  46.5776  2.13106706 91526
COSMOS 2425 (716)       
1 29670U 06062A   17271.20529898  .00000014  00000-0  10000-3 0  9998
2 29670  65.4097 301.3892 0020202 338.6330 347.7638  2.13104948 83725
COSMOS 2426 (717)       
1 29671U 06062B   17271.42681545  .00000016  00000-0  10000-3 0  9993
2 29671  65.4255 301.4747 0018314 173.0226 180.8830  2.13102606 83738
COSMOS 2424 (715)       
1 29672U 06062C   17270.48767828  .00000006  00000-0  10000-3 0  9997
2 29672  65.4120 301.4258 0018164 171.8538 356.6814  2.13102354 83715
COSMOS 2433 (720)       
1 32275U 07052A   17271.01158341  .00000010  00000-0  10000-3 0  9999
2 32275  65.5630  62.1708 0001369 194.9928 174.7297  2.13104660 77241
COSMOS 2432 (719)       
1 32276U 07052B   17271.06936810  .00000011  00000-0  10000-3 0  9991
2 32276  65.5752  62.2418 0009640 344.7582  21.9532  2.13103943 77245
COSMOS 2434 (721)       
1 32393U 07065A   17270.89887709  .00000011  00000-0  00000-0 0  9993
2 32393  65.0267 300.5008 0003509 154.1274  18.2306  2.13102921 75941
COSMOS 2436 (723)       
1 32395U 07065C   17271.24668034  .00000015  00000-0  10000-3 0  9991
2 32395  65.0358 300.5341 0013341 350.8659 137.5238  2.13104315 75882
COSMOS 2443 (725)       
1 33379U 08046B   17271.24236260  .00000010  00000-0  00000-0 0  9997
2 33379  65.4932  61.5363 0012992 176.6467 268.7334  2.13099619 70101
COSMOS 2456 (730)       
1 36111U 09070A   17271.57595304 -.00000019  00000-0  00000+0 0  9994
2 36111  64.1802 180.0423 0004841 312.1324 191.1202  2.13103007 60623
COSMOS 2457 (733)       
1 36112U 09070B   17270.86527176 -.00000017  00000-0  00000+0 0  9996
2 36112  64.1622 179.9835 0006016 173.5914 272.5447  2.13101764 60610
COSMOS 2458 (734)       
1 36113U 09070C   17271.40973446 -.00000018  00000-0  10000-3 0  9999
2 36113  64.1681 179.9728 0001669 348.8269 203.0719  2.13101856 60620
COSMOS 2459 (731)       
1 36400U 10007A   17271.24653042  .00000010  00000-0  10000-3 0  9990
2 36400  65.4726  61.2557 0025989 356.8056  54.3802  2.13102167 58971
COSMOS 2461 (735)       
1 36401U 10007B   17271.54438275  .00000011  00000-0  10000-3 0  9994
2 36401  65.4648  61.2231 0008490  79.7135 110.5911  2.13102140 58978
COSMOS 2460 (732)       
1 36402U 10007C   17271.07131426  .00000009  00000-0  10000-3 0  9998
2 36402  65.4553  61.2099 0002375 110.7256 117.7305  2.13101702 58960
COSMOS 2465 (737)       
1 37138U 10041B   17271.24218546  .00000014  00000-0  00000+0 0  9992
2 37138  64.6230 300.4233 0036567 172.4287 306.5700  2.13097479 55045
COSMOS 2464 (736)       
1 37139U 10041C   17271.21011404  .00000014  00000-0  00000-0 0  9995
2 37139  64.6303 300.4244 0021145   7.5400 271.3275  2.13102659 55032
COSMOS 2471 (701K)      
1 37372U 11009A   17271.12461808  .00000009  00000-0  00000-0 0  9990
2 37372  65.4525  61.1554 0007329 220.7334 186.9462  2.13107644 51241
COSMOS 2474 (742)       
1 37829U 11055A   17271.14833212 -.00000018  00000-0  00000+0 0  9992
2 37829  64.5041 180.6641 0008928 250.6034 143.9148  2.13101963 46617
COSMOS 2476 (744)       
1 37867U 11064A   17271.11713372 -.00000017  00000-0  00000-0 0  9995
2 37867  64.4851 180.7345 0018362 244.0551 172.4958  2.13101994 45960
COSMOS 2477 (745)       
1 37868U 11064B   17270.94857817 -.00000017  00000-0  00000+0 0  9998
2 37868  64.4923 180.7858 0016060 245.4362 220.8759  2.13101918 45916
COSMOS 2475 (743)       
1 37869U 11064C   17271.14417280 -.00000018  00000-0  00000+0 0  9999
2 37869  64.4998 180.7717 0020897 270.5937 302.2700  2.13102246 45920
COSMOS 2485 (747)       
1 39155U 13019A   17271.11392229 -.00000017  00000-0  00000+0 0  9992
2 39155  64.6539 180.7864 0018598 238.8603 220.2182  2.13102078 34438
COSMOS 2492 (754)       
1 39620U 14012A   17271.04107672  .00000008  00000-0  10000-3 0  9995
2 39620  65.3455  61.1332 0012836 337.2365 100.3128  2.13103367 27386
COSMOS 2500 (755)       
1 40001U 14032A   17270.93944021  .00000007  00000-0  00000+0 0  9990
2 40001  65.2871  61.1262 0006343 185.1098  37.3081  2.13102762 25599
COSMOS 2501 (702K)      
1 40315U 14075A   17271.06042193  .00000009  00000-0  00000-0 0  9992
2 40315  64.3568 301.7357 0016999 210.9023 269.0713  2.13098574 22005
COSMOS 2514 (751)       
1 41330U 16008A   17271.34226359  .00000009  00000-0  00000+0 0  9996
2 41330  65.0867  61.2308 0009045 201.0795 150.6170  2.13103337 12766
COSMOS 2516 (753)       
1 41554U 16032A   17271.44399021  .00000014  00000-0  00000+0 0  9995
2 41554  64.5769 301.5140 0014566 222.7720  99.0349  2.13101627 10374
